COSMOS 2058             
1 20465U 90010A   26078.31437889  .00003307  00000+0  19411-3 0  9994
2 20465  82.4674  37.9431 0008054 310.4368  49.6159 15.11402491943692
SL-14 R/B               
1 20466U 90010B   26077.92705625  .00000408  00000+0  46570-4 0  9993
2 20466  82.4987 258.7090 0018319 269.4952  90.4163 14.83577050929854
SL-14 R/B               
1 20511U 90018B   26078.08878930  .00000430  00000+0  50877-4 0  9990
2 20511  82.5220 214.3051 0017485  63.5565 296.7441 14.82154673923975
HST                     
1 20580U 90037B   26078.01202943  .00006585  00000+0  21509-3 0  9991
2 20580  28.4725 336.3997 0001574 225.3944 134.6524 15.29626908774743
SL-16 R/B               
1 20625U 90046B   26078.24059500  .00000058  00000+0  54573-4 0  9992
2 20625  70.9954 277.8541 0016203 286.9545  72.9801 14.15011944849745
COSMOS 2084             
1 20663U 90055A   26077.95339869  .00001849  00000+0  14093-3 0  9991
2 20663  62.7902 303.9824 0015623 192.5621 167.5092 15.05700267937717
SL-6 R/B(2)             
1 20666U 90055D   26077.68271721  .00001898  00000+0  15166-3 0  9992
2 20666  62.7825 223.2661 0026258 349.1881  10.8651 15.03638482939542
SL-8 R/B                
1 20775U 90078B   26077.98201659  .00009451  00000+0  27880-3 0  9993
2 20775  82.9001 242.9501 0360289 342.7169  16.2031 14.89351773810680
SL-8 R/B                
1 21088U 91006B   26078.28476271  .00000084  00000+0  69013-4 0  9999
2 21088  82.9458 162.9128 0022488  12.1327  47.8123 13.77495524765398
OKEAN-3                 
1 21397U 91039A   26078.18764470  .00001820  00000+0  12659-3 0  9990
2 21397  82.5193 327.6434 0012957 301.6359  58.3603 15.04867981866466
COSMOS 2151             
1 21422U 91042A   26078.22184906  .00001760  00000+0  13868-3 0  9994
2 21422  82.4932  74.4780 0013360  34.3923 325.8163 15.00143562864629
SL-14 R/B               
1 21423U 91042B   26077.87369804  .00000437  00000+0  52226-4 0  9999
2 21423  82.4940 211.5709 0016365 206.5563 153.4815 14.81839039854431
