CCSDS_OMM_VERS = 2.0
CREATION_DATE  = 
ORIGINATOR     = 

OBJECT_NAME    = COSMOS 2058
OBJECT_ID      = 1990-010A
CENTER_NAME    = EARTH
REF_FRAME      = TEME
TIME_SYSTEM    = UTC
MEAN_ELEMENT_THEORY = SGP/SGP4

EPOCH          = 2026-03-19T07:32:42.336096
MEAN_MOTION    = 15.11402491
ECCENTRICITY   = .00080549
INCLINATION    = 82.4674
RA_OF_ASC_NODE = 37.9431
ARG_OF_PERICENTER = 310.4368
MEAN_ANOMALY   = 49.6159

EPHEMERIS_TYPE = 0
CLASSIFICATION_TYPE = U
NORAD_CAT_ID   = 20465
ELEMENT_SET_NO = 999
REV_AT_EPOCH   = 94369
BSTAR          = .19411363E-3
MEAN_MOTION_DOT = .3307E-4
MEAN_MOTION_DDOT = 0

CCSDS_OMM_VERS = 2.0
CREATION_DATE  = 
ORIGINATOR     = 

OBJECT_NAME    = SL-14 R/B
OBJECT_ID      = 1990-010B
CENTER_NAME    = EARTH
REF_FRAME      = TEME
TIME_SYSTEM    = UTC
MEAN_ELEMENT_THEORY = SGP/SGP4

EPOCH          = 2026-03-18T22:14:57.660000
MEAN_MOTION    = 14.83577050
ECCENTRICITY   = .00183195
INCLINATION    = 82.4987
RA_OF_ASC_NODE = 258.7090
ARG_OF_PERICENTER = 269.4952
MEAN_ANOMALY   = 90.4163

EPHEMERIS_TYPE = 0
CLASSIFICATION_TYPE = U
NORAD_CAT_ID   = 20466
ELEMENT_SET_NO = 999
REV_AT_EPOCH   = 92985
BSTAR          = .46569551E-4
MEAN_MOTION_DOT = .408E-5
MEAN_MOTION_DDOT = 0

CCSDS_OMM_VERS = 2.0
CREATION_DATE  = 
ORIGINATOR     = 

OBJECT_NAME    = SL-14 R/B
OBJECT_ID      = 1990-018B
CENTER_NAME    = EARTH
REF_FRAME      = TEME
TIME_SYSTEM    = UTC
MEAN_ELEMENT_THEORY = SGP/SGP4

EPOCH          = 2026-03-19T02:07:51.395520
MEAN_MOTION    = 14.82154673
ECCENTRICITY   = .00174854
INCLINATION    = 82.5220
RA_OF_ASC_NODE = 214.3051
ARG_OF_PERICENTER = 63.5565
MEAN_ANOMALY   = 296.7441

EPHEMERIS_TYPE = 0
CLASSIFICATION_TYPE = U
NORAD_CAT_ID   = 20511
ELEMENT_SET_NO = 999
REV_AT_EPOCH   = 92397
BSTAR          = .50876578E-4
MEAN_MOTION_DOT = .43E-5
MEAN_MOTION_DDOT = 0

CCSDS_OMM_VERS = 2.0
CREATION_DATE  = 
ORIGINATOR     = 

OBJECT_NAME    = HST
OBJECT_ID      = 1990-037B
CENTER_NAME    = EARTH
REF_FRAME      = TEME
TIME_SYSTEM    = UTC
MEAN_ELEMENT_THEORY = SGP/SGP4

EPOCH          = 2026-03-19T00:17:19.342752
MEAN_MOTION    = 15.29626908
ECCENTRICITY   = .0001574
INCLINATION    = 28.4725
RA_OF_ASC_NODE = 336.3997
ARG_OF_PERICENTER = 225.3944
MEAN_ANOMALY   = 134.6524

EPHEMERIS_TYPE = 0
CLASSIFICATION_TYPE = U
NORAD_CAT_ID   = 20580
ELEMENT_SET_NO = 999
REV_AT_EPOCH   = 77474
BSTAR          = .21508903E-3
MEAN_MOTION_DOT = .6585E-4
MEAN_MOTION_DDOT = 0

CCSDS_OMM_VERS = 2.0
CREATION_DATE  = 
ORIGINATOR     = 

OBJECT_NAME    = SL-16 R/B
OBJECT_ID      = 1990-046B
CENTER_NAME    = EARTH
REF_FRAME      = TEME
TIME_SYSTEM    = UTC
MEAN_ELEMENT_THEORY = SGP/SGP4

EPOCH          = 2026-03-19T05:46:27.408000
MEAN_MOTION    = 14.15011944
ECCENTRICITY   = .00162036
INCLINATION    = 70.9954
RA_OF_ASC_NODE = 277.8541
ARG_OF_PERICENTER = 286.9545
MEAN_ANOMALY   = 72.9801

EPHEMERIS_TYPE = 0
CLASSIFICATION_TYPE = U
NORAD_CAT_ID   = 20625
ELEMENT_SET_NO = 999
REV_AT_EPOCH   = 84974
BSTAR          = .54573371E-4
MEAN_MOTION_DOT = .58E-6
MEAN_MOTION_DDOT = 0

CCSDS_OMM_VERS = 2.0
CREATION_DATE  = 
ORIGINATOR     = 

OBJECT_NAME    = COSMOS 2084
OBJECT_ID      = 1990-055A
CENTER_NAME    = EARTH
REF_FRAME      = TEME
TIME_SYSTEM    = UTC
MEAN_ELEMENT_THEORY = SGP/SGP4

EPOCH          = 2026-03-18T22:52:53.646816
MEAN_MOTION    = 15.05700267
ECCENTRICITY   = .0015623
INCLINATION    = 62.7902
RA_OF_ASC_NODE = 303.9824
ARG_OF_PERICENTER = 192.5621
MEAN_ANOMALY   = 167.5092

EPHEMERIS_TYPE = 0
CLASSIFICATION_TYPE = U
NORAD_CAT_ID   = 20663
ELEMENT_SET_NO = 999
REV_AT_EPOCH   = 93771
BSTAR          = .14092815E-3
MEAN_MOTION_DOT = .1849E-4
MEAN_MOTION_DDOT = 0

CCSDS_OMM_VERS = 2.0
CREATION_DATE  = 
ORIGINATOR     = 

OBJECT_NAME    = SL-6 R/B(2)
OBJECT_ID      = 1990-055D
CENTER_NAME    = EARTH
REF_FRAME      = TEME
TIME_SYSTEM    = UTC
MEAN_ELEMENT_THEORY = SGP/SGP4

EPOCH          = 2026-03-18T16:23:06.766944
MEAN_MOTION    = 15.03638482
ECCENTRICITY   = .00262582
INCLINATION    = 62.7825
RA_OF_ASC_NODE = 223.2661
ARG_OF_PERICENTER = 349.1881
MEAN_ANOMALY   = 10.8651

EPHEMERIS_TYPE = 0
CLASSIFICATION_TYPE = U
NORAD_CAT_ID   = 20666
ELEMENT_SET_NO = 999
REV_AT_EPOCH   = 93954
BSTAR          = .1516617E-3
MEAN_MOTION_DOT = .1898E-4
MEAN_MOTION_DDOT = 0

CCSDS_OMM_VERS = 2.0
CREATION_DATE  = 
ORIGINATOR     = 

OBJECT_NAME    = SL-8 R/B
OBJECT_ID      = 1990-078B
CENTER_NAME    = EARTH
REF_FRAME      = TEME
TIME_SYSTEM    = UTC
MEAN_ELEMENT_THEORY = SGP/SGP4

EPOCH          = 2026-03-18T23:34:06.233376
MEAN_MOTION    = 14.89351773
ECCENTRICITY   = .03602896
INCLINATION    = 82.9001
RA_OF_ASC_NODE = 242.9501
ARG_OF_PERICENTER = 342.7169
MEAN_ANOMALY   = 16.2031

EPHEMERIS_TYPE = 0
CLASSIFICATION_TYPE = U
NORAD_CAT_ID   = 20775
ELEMENT_SET_NO = 999
REV_AT_EPOCH   = 81068
BSTAR          = .27879614E-3
MEAN_MOTION_DOT = .9451E-4
MEAN_MOTION_DDOT = 0

CCSDS_OMM_VERS = 2.0
CREATION_DATE  = 
ORIGINATOR     = 

OBJECT_NAME    = SL-8 R/B
OBJECT_ID      = 1991-006B
CENTER_NAME    = EARTH
REF_FRAME      = TEME
TIME_SYSTEM    = UTC
MEAN_ELEMENT_THEORY = SGP/SGP4

EPOCH          = 2026-03-19T06:50:03.498144
MEAN_MOTION    = 13.77495524
ECCENTRICITY   = .00224888
INCLINATION    = 82.9458
RA_OF_ASC_NODE = 162.9128
ARG_OF_PERICENTER = 12.1327
MEAN_ANOMALY   = 47.8123

EPHEMERIS_TYPE = 0
CLASSIFICATION_TYPE = U
NORAD_CAT_ID   = 21088
ELEMENT_SET_NO = 999
REV_AT_EPOCH   = 76539
BSTAR          = .69013346E-4
MEAN_MOTION_DOT = .84E-6
MEAN_MOTION_DDOT = 0

CCSDS_OMM_VERS = 2.0
CREATION_DATE  = 
ORIGINATOR     = 

OBJECT_NAME    = OKEAN-3
OBJECT_ID      = 1991-039A
CENTER_NAME    = EARTH
REF_FRAME      = TEME
TIME_SYSTEM    = UTC
MEAN_ELEMENT_THEORY = SGP/SGP4

EPOCH          = 2026-03-19T04:30:12.502080
MEAN_MOTION    = 15.04867981
ECCENTRICITY   = .00129572
INCLINATION    = 82.5193
RA_OF_ASC_NODE = 327.6434
ARG_OF_PERICENTER = 301.6359
MEAN_ANOMALY   = 58.3603

EPHEMERIS_TYPE = 0
CLASSIFICATION_TYPE = U
NORAD_CAT_ID   = 21397
ELEMENT_SET_NO = 999
REV_AT_EPOCH   = 86646
BSTAR          = .12659123E-3
MEAN_MOTION_DOT = .182E-4
MEAN_MOTION_DDOT = 0

CCSDS_OMM_VERS = 2.0
CREATION_DATE  = 
ORIGINATOR     = 

OBJECT_NAME    = COSMOS 2151
OBJECT_ID      = 1991-042A
CENTER_NAME    = EARTH
REF_FRAME      = TEME
TIME_SYSTEM    = UTC
MEAN_ELEMENT_THEORY = SGP/SGP4

EPOCH          = 2026-03-19T05:19:27.758784
MEAN_MOTION    = 15.00143562
ECCENTRICITY   = .00133607
INCLINATION    = 82.4932
RA_OF_ASC_NODE = 74.4780
ARG_OF_PERICENTER = 34.3923
MEAN_ANOMALY   = 325.8163

EPHEMERIS_TYPE = 0
CLASSIFICATION_TYPE = U
NORAD_CAT_ID   = 21422
ELEMENT_SET_NO = 999
REV_AT_EPOCH   = 86462
BSTAR          = .13867687E-3
MEAN_MOTION_DOT = .176E-4
MEAN_MOTION_DDOT = 0

CCSDS_OMM_VERS = 2.0
CREATION_DATE  = 
ORIGINATOR     = 

OBJECT_NAME    = SL-14 R/B
OBJECT_ID      = 1991-042B
CENTER_NAME    = EARTH
REF_FRAME      = TEME
TIME_SYSTEM    = UTC
MEAN_ELEMENT_THEORY = SGP/SGP4

EPOCH          = 2026-03-18T20:58:07.510656
MEAN_MOTION    = 14.81839039
ECCENTRICITY   = .0016365
INCLINATION    = 82.4940
RA_OF_ASC_NODE = 211.5709
ARG_OF_PERICENTER = 206.5563
MEAN_ANOMALY   = 153.4815

EPHEMERIS_TYPE = 0
CLASSIFICATION_TYPE = U
NORAD_CAT_ID   = 21423
ELEMENT_SET_NO = 999
REV_AT_EPOCH   = 85443
BSTAR          = .52226359E-4
MEAN_MOTION_DOT = .437E-5
MEAN_MOTION_DDOT = 0

